Local Time,Temperature (C),Dewpoint  (C),Humidity (%),Barometer (hPa),Visibility (km),Wind Direction (degree),Wind Speed (km),Events,Conditions
13/03/2016 12:00,24.4,20,71,1020,25.7,NNE (30),16.7,,Partly Cloudy
13/03/2016 00:00,24,20,78,1019,10,NNE (30),16.7,,Partly Cloudy
13/03/2016 00:30,25,20,74,1019,10,NNE (20),20.4,,Partly Cloudy
13/03/2016 01:00,24.4,20,70,1019.3,,NNE (20),20.4,,
13/03/2016 01:00,24,20,78,1019,10,NNE (20),20.4,,Partly Cloudy
13/03/2016 01:30,24,20,78,1019,10,NNE (20),20.4,,Partly Cloudy
13/03/2016 02:00,24.4,20,70,1019,,NNE (30),14.8,,
13/03/2016 02:00,24,20,78,1017.9,,NNE (30),14.8,,Clear
13/03/2016 02:30,24,20,78,1017.9,,NNE (30),14.8,,Clear
13/03/2016 03:00,23.9,19.4,71,1019,30.6,NNE (20),14.8,,Partly Cloudy
13/03/2016 03:00,24,20,78,1017.9,,NNE (20),14.8,,Clear
13/03/2016 03:30,24,20,78,1017.9,,NNE (30),16.7,,Clear
13/03/2016 04:00,23.3,19.4,74,1019,,NNE (30),16.7,,
13/03/2016 04:00,24,20,78,1017.9,,NNE (30),16.7,,Clear
13/03/2016 04:30,23,20,83,1017.9,,NNE (30),16.7,,Clear
13/03/2016 05:00,23.3,19.4,73,1019,,NNE (20),14.8,,
13/03/2016 05:00,24,19,73,1017.9,,NNE (20),14.8,,Clear
13/03/2016 05:30,24,19,73,1017.9,,NNE (30),16.7,,Clear
13/03/2016 06:00,23.3,18.3,67,1019,30.6,NNE (30),16.7,,Partly Cloudy
13/03/2016 06:00,24,19,73,1017.9,10,NNE (30),16.7,,Mostly Cloudy
13/03/2016 06:30,24,19,73,1019,10,NNE (30),14.8,,Mostly Cloudy
13/03/2016 07:00,23.9,18.3,64,1020,,North (10),11.1,,
13/03/2016 07:00,24,18,69,1019,10,North (10),11.1,,Scattered Clouds
13/03/2016 07:30,24,18,69,1019,10,NNE (20),14.8,,Mostly Cloudy
13/03/2016 08:00,25,18.3,58,1020.3,,NNE (20),13,,
13/03/2016 08:00,25,18,65,1020,10,NNE (20),13,,Mostly Cloudy
13/03/2016 08:30,26,18,61,1020,10,NNE (30),16.7,,Mostly Cloudy
13/03/2016 09:00,26.7,18.3,51,1020.7,25.7,NNE (30),18.5,,Partly Cloudy
13/03/2016 09:00,26,18,61,1020,10,NNE (30),18.5,,Scattered Clouds
13/03/2016 09:30,27,18,58,1020,10,NNE (20),20.4,,Scattered Clouds
13/03/2016 10:00,27.2,17.2,45,1020.7,,NNE (30),24.1,,
13/03/2016 10:00,27,17,54,1020,10,NNE (30),24.1,,Scattered Clouds
13/03/2016 10:30,28,17,51,1020,10,NNE (30),29.6,,Mostly Cloudy
13/03/2016 11:00,27.8,17.2,43,1020.3,,NNE (30),27.8,,
13/03/2016 11:00,28,17,51,1020,10,NNE (30),27.8,,Mostly Cloudy
13/03/2016 11:30,27,17,54,1020,10,NNE (30),27.8,,Mostly Cloudy
13/03/2016 12:00,27.2,16.7,42,1020,25.7,NNE (30),27.8,,Partly Cloudy
13/03/2016 12:00,27,17,54,1020,10,NNE (30),27.8,,Mostly Cloudy
13/03/2016 12:30,28,16,48,1019,10,NE (40),27.8,,Mostly Cloudy
13/03/2016 13:00,29.4,16.1,34,1019.3,,NE (50),27.8,,
13/03/2016 13:00,30,16,43,1019,10,NE (50),27.8,,Mostly Cloudy
13/03/2016 13:30,28,15,45,1019,10,NE (50),25.9,,Mostly Cloudy
13/03/2016 14:00,28.9,16.7,37,1019,,NE (40),27.8,,
13/03/2016 14:00,29,16,45,1017.9,10,NE (40),27.8,,Mostly Cloudy
13/03/2016 14:30,28,16,48,1017.9,10,ENE (70),29.6,,Mostly Cloudy
13/03/2016 15:00,28.3,17.2,41,1017.9,25.7,ENE (60),31.5,,Partly Cloudy
13/03/2016 15:00,29,17,48,1017.3,10,ENE (60),31.5,,Mostly Cloudy
13/03/2016 15:30,28,19,58,1017.3,10,ENE (60),27.8,,Mostly Cloudy
13/03/2016 16:00,27.2,18.3,49,1017.3,,NE (50),27.8,,
13/03/2016 16:00,27,18,58,1017.3,10,NE (50),27.8,,Mostly Cloudy
13/03/2016 16:30,27,19,61,1016.3,10,NE (50),24.1,,Mostly Cloudy
13/03/2016 17:00,27.2,19.4,53,1016.6,,NE (50),25.9,,
13/03/2016 17:00,27,19,61,1016.3,10,NE (50),25.9,,Mostly Cloudy
13/03/2016 17:30,26,19,65,1016.3,10,ENE (60),25.9,,Mostly Cloudy
13/03/2016 18:00,26.7,18.9,54,1016.6,30.6,NE (50),29.6,,Partly Cloudy
13/03/2016 18:00,27,19,61,1016.3,10,NE (50),29.6,,Mostly Cloudy
13/03/2016 18:30,27,19,61,1016.3,10,NE (50),29.6,,Mostly Cloudy
13/03/2016 19:00,26.1,20,60,1017.3,,NE (50),24.1,,
13/03/2016 19:00,26,20,69,1017.3,10,NE (50),24.1,,Mostly Cloudy
13/03/2016 19:30,26,20,69,1017.3,10,NE (40),18.5,,Mostly Cloudy
13/03/2016 20:00,25.6,20.6,66,1017.6,,NE (50),18.5,,
13/03/2016 20:00,26,20,69,1017.3,10,NE (50),18.5,,Mostly Cloudy
13/03/2016 20:30,26,21,74,1017.3,10,NE (40),16.7,,Scattered Clouds
13/03/2016 21:00,25.6,21.1,69,1017.9,30.6,NNE (30),16.7,,Partly Cloudy
13/03/2016 21:00,26,21,74,1017.9,10,NNE (30),16.7,,Scattered Clouds
13/03/2016 21:30,25,21,78,1017.9,10,NNE (30),14.8,,Scattered Clouds
13/03/2016 22:00,25,21.1,72,1018.3,,NNE (30),14.8,,
13/03/2016 22:00,25,21,78,1017.9,10,NNE (30),14.8,,Scattered Clouds
13/03/2016 22:30,25,21,78,1017.9,10,NNE (30),13,,Scattered Clouds
13/03/2016 23:00,24.4,20.6,73,1018.3,,NNE (30),11.1,,
13/03/2016 23:00,24,21,83,1017.9,10,NNE (30),11.1,,Scattered Clouds
14/03/2016 00:00,25,20.6,70,1017.6,30.6,NNE (20),14.8,,Partly Cloudy
14/03/2016 00:00,25,21,78,1017.3,10,NNE (20),14.8,,Scattered Clouds
14/03/2016 00:30,25,20,74,1017.3,10,NNE (30),13,,Mostly Cloudy
14/03/2016 01:00,25,20.6,68,1016.9,,NNE (20),13,,
14/03/2016 01:00,25,20,74,1016.3,10,NNE (20),13,,Mostly Cloudy
14/03/2016 01:30,25,20,74,1016.3,10,North (10),11.1,,Scattered Clouds
14/03/2016 02:00,23.9,20.6,75,1016.3,,NE (50),9.3,,
14/03/2016 02:00,24,20,78,1016.3,,NE (50),9.3,,Clear
14/03/2016 02:30,23,21,88,1015.2,,ENE (60),9.3,,Clear
14/03/2016 03:00,23,21,88,1015.2,10,ENE (60),9.3,,Scattered Clouds
14/03/2016 03:00,22.8,20.6,83,1015.9,30.6,ENE (60),9.3,,Partly Cloudy
14/03/2016 03:30,23,21,88,1015.2,,NNE (30),7.4,,Clear
14/03/2016 04:00,22.2,20.6,87,1015.6,,NE (50),5.6,,
14/03/2016 04:00,22,21,94,1015.2,10,NE (50),5.6,,Scattered Clouds
14/03/2016 04:30,22,20,88,1015.2,10,ENE (60),3.7,,Scattered Clouds
14/03/2016 05:00,22.2,20.6,86,1014.9,,ENE (60),5.6,,
14/03/2016 05:00,22,20,88,1014.2,10,ENE (60),5.6,,Scattered Clouds
14/03/2016 05:30,22,21,94,1014.2,10,NE (50),5.6,,Scattered Clouds
14/03/2016 06:00,22.8,20.6,84,1015.2,19.3,ENE (60),5.6,,Partly Cloudy
14/03/2016 06:30,22,21,94,1015.2,10,Calm,,,Mostly Cloudy
14/03/2016 07:00,21.7,20.6,92,1015.6,,Calm,,,
14/03/2016 07:00,22,21,94,1015.2,10,Calm,,,Mostly Cloudy
14/03/2016 07:30,23,21,88,1015.2,10,WNW (290),7.4,,Mostly Cloudy
14/03/2016 08:00,22.8,20.6,84,1015.9,,West (280),7.4,,
14/03/2016 08:00,23,21,88,1015.2,10,West (280),7.4,,Mostly Cloudy
14/03/2016 08:30,24,21,83,1016.3,10,WNW (290),7.4,,Mostly Cloudy
14/03/2016 09:00,24,21,83,1016.3,10,WNW (300),9.3,,Mostly Cloudy
14/03/2016 09:00,23.9,20.6,76,1016.3,19.3,WNW (300),9.3,,Scattered Clouds
14/03/2016 09:30,25,20,74,1016.3,10,WNW (300),9.3,,Mostly Cloudy
14/03/2016 10:00,26.1,20.6,65,1016.6,,WNW (290),9.3,,
14/03/2016 10:00,26,21,74,1016.3,10,WNW (290),9.3,,Mostly Cloudy
14/03/2016 10:30,26,20,69,1016.3,10,NNW (330),7.4,,Mostly Cloudy
14/03/2016 11:00,26.7,19.4,56,1016.3,,West (280),9.3,,
14/03/2016 11:00,27,20,65,1016.3,10,West (280),9.3,,Mostly Cloudy
14/03/2016 11:30,28,20,62,1015.2,10,WNW (300),9.3,,Mostly Cloudy
14/03/2016 12:00,27,21,70,1015.2,10,South (190),9.3,,Mostly Cloudy
14/03/2016 12:00,26.7,21.1,64,1015.6,25.7,South (190),9.3,,Smoke
14/03/2016 12:30,27,20,65,1014.2,10,SSE (150),11.1,,Mostly Cloudy
14/03/2016 13:00,28.3,20,53,1014.9,,SE (140),16.7,,
14/03/2016 13:00,29,20,58,1014.2,10,SE (140),16.7,,Scattered Clouds
14/03/2016 13:30,29,20,58,1014.2,10,SE (130),20.4,,Partly Cloudy
14/03/2016 14:00,28.9,19.4,47,1014.6,,SE (140),18.5,,
14/03/2016 14:00,29,19,55,1014.2,10,SE (140),18.5,,Partly Cloudy
14/03/2016 14:30,26,22,78,1014.2,10,SSE (160),22.2,,Scattered Clouds
14/03/2016 15:00,24,22,89,1014.2,10,South (180),25.9,,Mostly Cloudy
14/03/2016 15:00,24.4,21.7,81,1014.6,25.7,South (180),25.9,,Scattered Clouds
14/03/2016 15:30,24,22,89,1014.2,10,South (180),29.6,,Mostly Cloudy
14/03/2016 16:00,24.4,21.7,79,1014.9,,South (190),29.6,,
14/03/2016 16:00,24,22,89,1014.2,10,South (190),29.6,,Mostly Cloudy
14/03/2016 16:30,24,22,89,1014.2,10,South (190),27.8,,Mostly Cloudy
14/03/2016 17:00,23.3,21.7,87,1014.9,,SSW (200),27.8,,
14/03/2016 17:00,24,22,89,1014.2,10,SSW (200),27.8,,Mostly Cloudy
14/03/2016 17:30,24,21,83,1015.2,10,SSW (200),25.9,,Mostly Cloudy
14/03/2016 18:00,24,21,83,1015.2,10,South (190),27.8,,Partly Cloudy
14/03/2016 18:00,23.9,21.1,79,1015.6,19.3,South (190),27.8,,Haze
14/03/2016 18:30,24,21,83,1015.2,10,SSW (200),29.6,,Scattered Clouds
14/03/2016 19:00,23.3,20.6,81,1016.3,,SSW (200),29.6,,
14/03/2016 19:00,24,21,83,1016.3,10,SSW (200),29.6,Rain,Light Rain Showers
14/03/2016 19:30,24,20,78,1016.3,10,SSW (200),29.6,,Mostly Cloudy
14/03/2016 20:00,23.3,20.6,79,1016.9,,SSW (200),33.3,,
14/03/2016 20:00,23,20,83,1016.3,10,SSW (200),33.3,Rain,Light Rain Showers
14/03/2016 20:30,23,20,83,1017.3,10,SSW (200),31.5,,Scattered Clouds
14/03/2016 21:00,23,20,83,1017.3,10,SSW (200),29.6,,Scattered Clouds
14/03/2016 21:00,23.3,20,78,1017.9,17.7,SSW (200),29.6,,Haze
14/03/2016 21:30,23,20,83,1017.3,10,SSW (210),31.5,,Scattered Clouds
14/03/2016 22:00,22.8,20,80,1018.3,,SSW (200),29.6,,
14/03/2016 22:00,23,20,83,1017.9,10,SSW (200),29.6,,Scattered Clouds
14/03/2016 22:13,23,20,83,1017.9,10,SSW (210),29.6,,Mostly Cloudy
14/03/2016 22:30,23,20,83,1017.9,10,SSW (210),27.8,,Scattered Clouds
14/03/2016 23:00,22.8,20,81,1017.9,,SSW (210),31.5,,
14/03/2016 23:00,23,20,83,1017.3,10,SSW (210),31.5,,Scattered Clouds
14/03/2016 23:30,23,20,83,1017.3,10,SSW (210),25.9,,Scattered Clouds
15/03/2016 00:00,22.8,20.6,83,1017.6,17.7,SSW (210),29.6,,Scattered Clouds
15/03/2016 00:00,23,21,88,1017.3,10,SSW (210),29.6,,Partly Cloudy
15/03/2016 00:30,23,20,83,1017.3,10,SSW (210),33.3,,Partly Cloudy
15/03/2016 01:00,22.2,20,83,1017.3,,SSW (200),31.5,,
15/03/2016 01:00,23,20,83,1017.3,10,SSW (200),31.5,,Partly Cloudy
15/03/2016 01:30,23,20,83,1017.3,10,South (190),29.6,,Mostly Cloudy
15/03/2016 02:00,22.2,20,83,1016.9,,SSW (200),27.8,,
15/03/2016 02:00,22,20,88,1016.3,10,SSW (200),27.8,,Mostly Cloudy
15/03/2016 02:30,22,20,88,1016.3,10,SSW (200),29.6,,Scattered Clouds
15/03/2016 03:00,22,20,88,1016.3,10,SSW (210),31.5,,Mostly Cloudy
15/03/2016 03:00,22.2,20,83,1016.6,17.7,SSW (210),31.5,,Mostly Cloudy
15/03/2016 03:30,22,20,88,1016.3,10,SSW (210),33.3,,Mostly Cloudy
15/03/2016 04:00,22.2,20.6,87,1016.9,,South (190),33.3,,
15/03/2016 04:00,22,21,94,1016.3,6,South (190),33.3,Rain,Rain Showers
15/03/2016 04:07,21,21,100,1016.3,3.1,South (190),33.3,Rain,Rain Showers
15/03/2016 04:17,21,21,100,1017.3,4,SSW (210),31.5,Rain,Rain Showers
15/03/2016 04:30,21,20,94,1017.3,6,SSW (200),27.8,Rain,Rain Showers
15/03/2016 04:38,21,21,100,1017.3,6.9,South (190),31.5,Rain,Rain Showers
15/03/2016 05:00,21.1,20.6,94,1017.3,,SSW (200),31.5,,
15/03/2016 05:00,21,20,94,1017.3,9,SSW (200),31.5,Rain,Light Rain Showers
15/03/2016 05:11,21,20,94,1017.3,8,SSW (200),31.5,Rain,Light Rain Showers
15/03/2016 05:30,21,20,94,1017.3,10,South (190),31.5,Rain,Light Rain Showers
15/03/2016 06:00,20.6,20,96,1017.9,14.5,SSW (200),31.5,Rain,Light Rain Showers
15/03/2016 06:00,21,20,94,1017.3,6,South (190),31.5,Rain,Light Rain Showers
15/03/2016 06:12,21,20,94,1017.3,5,South (190),35.2,Rain,Light Rain Showers
15/03/2016 06:30,20,20,100,1017.9,3.1,SSW (200),33.3,Rain,Rain Showers
15/03/2016 06:50,20,20,100,1017.9,1.1,SSW (200),35.2,Rain,Rain Showers
15/03/2016 07:00,20,20,100,1017.9,1.4,South (190),37,Rain,Rain Showers
15/03/2016 07:00,19.4,19.4,100,1018.6,,South (190),37,,
15/03/2016 07:21,20,20,100,1017.9,5,SSW (210),29.6,Rain,Light Rain Showers
15/03/2016 07:30,20,19,94,1017.9,6,SSW (210),33.3,Rain,Light Rain Showers
15/03/2016 08:00,20,19,94,1019,9,SSW (210),27.8,Rain,Light Rain Showers
15/03/2016 08:00,19.4,18.9,97,1019.3,,SSW (210),27.8,,
15/03/2016 08:30,20,19,94,1019,10,SSW (210),24.1,Rain,Light Rain
15/03/2016 09:00,20,18.9,90,1019.6,17.7,SW (220),25.9,,Mostly Cloudy
15/03/2016 09:00,20,19,94,1019,10,SW (220),25.9,,Mostly Cloudy
15/03/2016 09:30,21,19,88,1019,10,SSW (210),27.8,,Mostly Cloudy
15/03/2016 10:00,21,19,88,1019,8,SSW (210),29.6,Rain,Light Rain Showers
15/03/2016 10:00,21.1,18.9,83,1020,,SSW (210),29.6,,
15/03/2016 10:15,21,19,88,1019,5,SSW (210),25.9,Rain,Light Rain Showers
15/03/2016 10:30,20,19,94,1019,6,South (170),24.1,Rain,Light Rain Showers
15/03/2016 11:00,21,20,94,1019,9,SW (220),16.7,Rain,Light Rain Showers
15/03/2016 11:00,20.6,19.4,92,1019.6,,SW (220),16.7,,
15/03/2016 11:30,21,20,94,1019,1.4,SSW (210),20.4,Rain,Rain Showers
15/03/2016 11:45,21,20,94,1019,6,West (260),9.3,Rain,Light Rain Showers
15/03/2016 12:00,21.7,20.6,89,1019.6,14.5,SSW (210),27.8,Rain,Light Rain Showers
15/03/2016 12:00,22,20,88,1019,8,SSW (210),27.8,Rain,Light Rain Showers
15/03/2016 12:05,22,20,88,1019,9,SSW (200),29.6,Rain,Light Rain Showers
15/03/2016 12:30,22,20,88,1019,10,SSW (200),29.6,,Mostly Cloudy
15/03/2016 13:00,22.8,20,81,1019.3,,South (190),24.1,,
15/03/2016 13:00,23,20,83,1019,10,South (190),24.1,,Mostly Cloudy
15/03/2016 13:30,23,19,78,1019,10,South (190),33.3,,Mostly Cloudy
15/03/2016 14:00,23,18,73,1019,10,South (190),37,,Mostly Cloudy
15/03/2016 14:00,22.8,18.3,70,1019,,South (190),37,,
15/03/2016 14:30,23,18,73,1017.9,10,South (190),33.3,,Mostly Cloudy
15/03/2016 15:00,23.3,17.8,63,1018.6,25.7,South (190),37,,Partly Cloudy
15/03/2016 15:00,23,18,73,1017.9,10,South (190),37,,Mostly Cloudy
15/03/2016 15:30,23,18,73,1017.9,10,South (190),37,,Mostly Cloudy
15/03/2016 16:00,23.9,17.8,61,1018.6,,South (190),31.5,,
15/03/2016 16:00,24,18,69,1017.9,10,South (190),31.5,,Mostly Cloudy
15/03/2016 16:30,24,19,73,1017.9,10,South (190),37,,Mostly Cloudy
15/03/2016 17:00,23,19,78,1017.9,10,South (190),33.3,,Mostly Cloudy
15/03/2016 17:00,23.3,18.3,67,1018.3,,South (190),33.3,,
15/03/2016 17:07,23,18,73,1017.9,10,South (190),33.3,,Mostly Cloudy
15/03/2016 17:30,23,18,73,1017.9,10,South (190),31.5,,Mostly Cloudy
15/03/2016 18:00,22.8,19.4,75,1018.3,25.7,SSW (200),31.5,,Partly Cloudy
15/03/2016 18:00,23,19,78,1017.9,10,SSW (200),31.5,,Mostly Cloudy
15/03/2016 18:30,22,19,83,1017.9,10,SSW (210),31.5,,Mostly Cloudy
15/03/2016 19:00,22.2,18.9,77,1017.9,,SSW (210),31.5,,
15/03/2016 19:00,22,19,83,1017.9,10,SSW (210),31.5,Rain,Light Rain Showers
15/03/2016 19:30,22,19,83,1017.9,10,SSW (210),27.8,Rain,Light Rain Showers
15/03/2016 20:00,22,20,88,1017.9,10,SSW (200),25.9,Rain,Light Rain Showers
15/03/2016 20:00,21.7,19.4,84,1018.3,,SSW (200),25.9,,
15/03/2016 20:30,22,20,88,1017.9,10,SSW (210),18.5,Rain,Light Rain Showers
15/03/2016 21:00,22.2,18.3,72,1019,22.5,SSE (150),22.2,,Mostly Cloudy
15/03/2016 21:00,23,18,73,1017.9,10,SSE (150),22.2,Rain,Light Rain Showers
15/03/2016 21:30,23,18,73,1017.9,10,SSE (150),20.4,,Mostly Cloudy
15/03/2016 22:00,22,19,83,1017.9,9,SSE (150),25.9,Rain,Light Rain Showers
15/03/2016 22:00,21.7,19.4,82,1019,,SSE (150),25.9,,
15/03/2016 22:30,22,20,88,1019,10,South (170),25.9,Rain,Light Rain Showers
15/03/2016 23:00,21.7,19.4,85,1019,,South (180),22.2,,
15/03/2016 23:00,22,20,88,1019,10,South (180),22.2,,Scattered Clouds
15/03/2016 23:30,21,19,88,1019,10,SSE (150),16.7,Rain,Light Rain Showers
16/03/2016 00:00,22.2,18.3,72,1019,25.7,SSE (150),20.4,Rain,Light Rain Showers
16/03/2016 00:00,22,18,78,1017.9,10,SSE (150),20.4,Rain,Light Rain Showers
16/03/2016 00:30,22,18,78,1017.9,10,SE (140),24.1,,Scattered Clouds
16/03/2016 01:00,21.7,19.4,82,1018.6,,SE (140),22.2,,
16/03/2016 01:00,22,19,83,1017.9,10,SE (140),22.2,Rain,Light Rain Showers
16/03/2016 02:00,21.7,18.9,80,1018.3,,SSE (150),22.2,,
16/03/2016 02:00,22,19,83,1017.9,10,SSE (150),22.2,,Scattered Clouds
16/03/2016 02:30,22,19,83,1017.9,10,SSE (150),25.9,Rain,Light Rain Showers
16/03/2016 03:00,22,19,83,1017.9,10,SE (140),20.4,,Scattered Clouds
16/03/2016 03:00,21.7,18.3,77,1017.9,30.6,SE (140),20.4,,Partly Cloudy
16/03/2016 03:30,22,18,78,1017.9,10,SE (140),20.4,,Mostly Cloudy
16/03/2016 04:00,21.7,18.9,80,1017.9,,South (170),18.5,,
16/03/2016 04:00,22,19,83,1017.3,10,South (170),18.5,Rain,Light Rain Showers
16/03/2016 04:09,21,19,88,1017.3,10,SSE (150),38.9,Rain,Light Rain Showers
16/03/2016 04:30,21,18,83,1017.3,10,SSE (150),29.6,,Mostly Cloudy
16/03/2016 05:00,21.1,18.3,79,1017.9,,SE (130),27.8,,
16/03/2016 05:00,21,18,83,1017.3,10,SE (130),27.8,Rain,Light Rain Showers
16/03/2016 05:30,21,19,88,1017.3,10,ESE (110),18.5,Rain,Light Rain Showers
16/03/2016 06:00,21,18,83,1017.9,10,SE (130),31.5,,Mostly Cloudy
16/03/2016 06:00,21.1,18.3,78,1018.3,14.5,SE (130),31.5,,Mostly Cloudy
16/03/2016 06:30,21,19,88,1017.9,6,SSE (150),22.2,Rain,Light Rain Showers
16/03/2016 07:00,20.6,18.9,87,1019,,South (170),24.1,,
16/03/2016 07:00,21,19,88,1017.9,6,South (170),24.1,Rain,Rain Showers
16/03/2016 07:30,20,19,94,1017.9,6,SSW (210),27.8,Rain,Light Rain Showers
16/03/2016 08:00,21.7,17.2,70,1019.3,,SE (140),24.1,,
16/03/2016 08:00,22,17,73,1019,10,SE (140),24.1,,Mostly Cloudy
16/03/2016 08:30,22,18,78,1019,10,SSE (160),24.1,,Mostly Cloudy
16/03/2016 09:00,21,18,83,1019,8,SE (130),22.2,Rain,Light Rain Showers
16/03/2016 09:00,21.1,17.8,75,1020,8,SE (130),22.2,Rain,Light Rain Showers
16/03/2016 09:30,23,17,69,1019,10,SSE (160),27.8,,Mostly Cloudy
16/03/2016 10:00,23.3,16.1,56,1020.3,,SSE (160),25.9,,
16/03/2016 10:00,23,16,65,1020,10,SSE (160),25.9,,Mostly Cloudy
16/03/2016 10:30,24,16,61,1020,10,SSE (160),27.8,,Mostly Cloudy
16/03/2016 11:00,23.3,18.3,66,1020.3,,South (180),31.5,,
16/03/2016 11:00,23,18,73,1020,10,South (180),31.5,,Mostly Cloudy
16/03/2016 11:30,23,19,78,1020,10,South (190),31.5,,Mostly Cloudy
16/03/2016 12:00,23,18,73,1019,10,South (190),35.2,,Scattered Clouds
16/03/2016 12:00,22.8,17.8,66,1019.6,25.7,South (190),35.2,,Partly Cloudy
16/03/2016 12:30,24,18,69,1019,10,South (190),35.2,,Partly Cloudy
16/03/2016 13:00,23.3,17.8,65,1019.3,,South (190),33.3,,
16/03/2016 13:00,23,18,73,1019,10,South (190),33.3,,Partly Cloudy
16/03/2016 13:30,24,17,65,1017.9,10,South (180),29.6,,Partly Cloudy
16/03/2016 14:00,23.3,17.8,63,1018.6,,South (190),33.3,,
16/03/2016 14:00,23,18,73,1017.9,10,South (190),33.3,,Scattered Clouds
16/03/2016 14:29,24,18,69,1017.9,10,South (190),31.5,,Partly Cloudy
16/03/2016 14:30,24,18,69,1017.9,10,South (190),33.3,,Partly Cloudy
16/03/2016 15:00,23.9,18.3,63,1018.3,25.7,South (190),31.5,,Partly Cloudy
16/03/2016 15:30,24,18,69,1017.3,10,South (180),27.8,,Partly Cloudy
16/03/2016 16:00,23.3,18.3,66,1017.6,,South (180),27.8,,
16/03/2016 16:00,24,18,69,1017.3,10,South (180),27.8,,Scattered Clouds
16/03/2016 16:30,23,18,73,1017.3,10,South (180),27.8,,Partly Cloudy
16/03/2016 17:00,23.3,17.8,64,1017.3,,South (180),31.5,,
16/03/2016 17:00,23,18,73,1017.3,10,South (180),31.5,,Partly Cloudy
16/03/2016 17:30,23,18,73,1017.3,10,South (180),29.6,,Scattered Clouds
16/03/2016 18:00,23,18,73,1017.3,9,South (180),27.8,Rain,Light Rain Showers
16/03/2016 18:00,22.8,17.8,67,1017.3,19.3,South (180),27.8,Rain,Light Rain Showers
16/03/2016 18:30,23,18,73,1017.3,10,South (170),27.8,,Mostly Cloudy
16/03/2016 19:00,22.2,18.3,72,1017.6,,South (170),25.9,,
16/03/2016 19:00,23,18,73,1017.3,10,South (170),25.9,,Scattered Clouds
16/03/2016 19:30,22,18,78,1017.3,10,SE (140),29.6,Rain,Light Rain Showers
16/03/2016 20:00,21.7,17.8,73,1017.9,,SSE (150),20.4,,
16/03/2016 20:00,21,18,83,1017.3,8,SSE (150),20.4,Rain,Light Rain Showers
16/03/2016 20:17,20,19,94,1017.9,5,South (190),14.8,Rain,Rain Showers
16/03/2016 20:30,21,19,88,1017.9,6,South (180),14.8,Rain,Light Rain Showers
16/03/2016 20:46,21,19,88,1017.9,10,ESE (110),11.1,Rain,Light Rain Showers
16/03/2016 21:00,21.1,19.4,87,1018.3,14.5,NE (50),13,Rain,Heavy Rain Showers
16/03/2016 21:00,21,19,88,1017.9,10,NE (50),13,Rain,Light Rain Showers
16/03/2016 21:30,22,20,88,1017.9,9,North (10),11.1,Rain,Light Rain Showers
16/03/2016 22:00,21.7,19.4,85,1017.9,,NNW (340),9.3,,
16/03/2016 22:00,22,20,88,1017.9,10,NNW (340),9.3,Rain,Light Rain Showers
16/03/2016 22:30,21,18,83,1017.9,5,ENE (70),16.7,Rain,Light Rain Showers
16/03/2016 23:00,20.6,18.3,81,1017.9,,NE (50),13,,
16/03/2016 23:00,21,18,83,1017.3,10,NE (50),13,Rain,Light Rain Showers
16/03/2016 23:30,21,19,88,1017.3,10,SSW (210),13,,Mostly Cloudy
17/03/2016 00:00,20,18.9,91,1017.6,14.5,West (270),13,Rain,Light Rain Showers
17/03/2016 00:00,20,19,94,1017.3,10,West (270),13,,Mostly Cloudy
17/03/2016 00:30,21,19,88,1017.3,10,SSE (160),7.4,,Mostly Cloudy
17/03/2016 01:00,20,19.4,94,1017.3,,SW (230),11.1,,
17/03/2016 01:00,20,19,94,1017.3,10,SW (230),11.1,Rain,Light Rain Showers
17/03/2016 01:30,20,19,94,1017.3,8,WSW (240),11.1,Rain,Light Rain Showers
17/03/2016 02:00,20,19.4,94,1016.9,,WSW (240),7.4,,
17/03/2016 02:00,20,19,94,1016.3,10,WSW (240),7.4,,Mostly Cloudy
17/03/2016 02:30,20,19,94,1016.3,10,West (270),11.1,,Mostly Cloudy
17/03/2016 03:00,20,19,94,1016.3,10,West (270),11.1,,Mostly Cloudy
17/03/2016 03:00,20,19.4,94,1016.6,25.7,West (270),11.1,,Mostly Cloudy
17/03/2016 04:00,20,19.4,94,1016.3,,West (270),11.1,,
17/03/2016 04:00,20,19,94,1016.3,10,West (270),11.1,,Mostly Cloudy
17/03/2016 04:30,20,19,94,1015.2,10,NW (310),7.4,,Mostly Cloudy
17/03/2016 05:00,20,18.9,92,1015.9,,West (280),11.1,,
17/03/2016 05:30,20,19,94,1015.2,10,WSW (240),14.8,,Mostly Cloudy
17/03/2016 06:00,20,18.9,90,1016.3,14.5,SW (230),14.8,,Mostly Cloudy
17/03/2016 06:00,20,19,94,1016.3,10,SW (230),14.8,,Mostly Cloudy
17/03/2016 06:30,20,19,94,1016.3,10,West (270),11.1,,Partly Cloudy
17/03/2016 07:00,20,18.9,90,1016.3,,West (260),7.4,,
17/03/2016 07:00,20,19,94,1016.3,10,West (260),7.4,Rain,Light Rain Showers
17/03/2016 07:25,20,19,94,1016.3,10,ESE (110),27.8,Rain,Light Rain Showers
17/03/2016 07:30,21,19,88,1016.3,10,ESE (110),27.8,Rain,Light Rain Showers
17/03/2016 08:00,20.6,18.9,88,1016.9,,NE (50),11.1,,
17/03/2016 08:00,20,19,94,1016.3,10,NE (50),11.1,Rain,Light Rain Showers
17/03/2016 08:30,21,19,88,1016.3,10,NE (50),9.3,,Scattered Clouds
17/03/2016 09:00,23,19,78,1017.3,10,North (10),9.3,,Mostly Cloudy
17/03/2016 09:00,22.8,19.4,75,1017.3,19.3,NNE (20),9.3,,Mostly Cloudy
17/03/2016 09:30,23,20,83,1017.3,10,NNE (20),13,,Mostly Cloudy
17/03/2016 10:00,22.2,18.9,76,1017.3,,NNE (30),16.7,,
17/03/2016 10:00,22,19,83,1017.3,10,NNE (30),16.7,,Mostly Cloudy
17/03/2016 10:30,23,19,78,1016.3,10,NNE (20),20.4,,Partly Cloudy
17/03/2016 11:00,23.9,17.8,60,1016.6,,North (10),14.8,,
17/03/2016 11:00,24,18,69,1016.3,10,North (10),14.8,,Mostly Cloudy
17/03/2016 11:30,25,17,61,1016.3,10,NNE (20),9.3,,Mostly Cloudy
17/03/2016 12:00,25,16,57,1015.2,10,NE (50),9.3,,Mostly Cloudy
17/03/2016 12:00,25,16.1,48,1015.6,25.7,NE (50),9.3,,Mostly Cloudy
17/03/2016 12:30,25,16,57,1015.2,10,NE (40),13,,Mostly Cloudy
17/03/2016 13:00,26.1,15,40,1014.9,,NE (40),9.3,,
17/03/2016 13:00,26,15,51,1014.2,10,NE (40),9.3,,Mostly Cloudy
17/03/2016 13:30,25,16,57,1014.2,10,ENE (70),22.2,,Scattered Clouds
17/03/2016 14:00,25,16.7,50,1013.9,,ENE (70),22.2,,
17/03/2016 14:00,25,17,61,1013.2,10,ENE (70),22.2,,Scattered Clouds
17/03/2016 14:30,25,17,61,1013.2,10,ENE (60),22.2,,Partly Cloudy
17/03/2016 15:00,25,17,61,1012.2,10,ENE (70),24.1,,Partly Cloudy
17/03/2016 15:00,25,16.7,51,1012.9,25.7,ENE (70),24.1,,Partly Cloudy
17/03/2016 15:30,26,17,57,1012.2,10,ENE (70),22.2,,Partly Cloudy
17/03/2016 16:00,25,16.7,51,1012.2,,ENE (70),27.8,,
17/03/2016 16:00,25,17,61,1012.2,10,ENE (70),27.8,,Partly Cloudy
17/03/2016 16:30,25,16,57,1011.2,10,ENE (60),22.2,,Partly Cloudy
17/03/2016 17:00,26.1,16.7,45,1011.9,,ENE (60),25.9,,
17/03/2016 17:00,26,16,54,1011.2,10,ENE (60),25.9,,Partly Cloudy
17/03/2016 17:30,26,16,54,1011.2,10,ENE (60),24.1,,Partly Cloudy
17/03/2016 18:00,26,16,54,1011.2,10,ENE (60),24.1,,Partly Cloudy
17/03/2016 18:00,25.6,16.1,46,1011.2,25.7,ENE (60),24.1,,Partly Cloudy
17/03/2016 18:30,25,16,57,1011.2,10,NE (40),24.1,,Partly Cloudy
17/03/2016 19:00,24.4,16.1,50,1011.2,,NE (40),24.1,,
17/03/2016 19:00,24,16,61,1011.2,10,NE (40),24.1,,Partly Cloudy
17/03/2016 19:30,24,16,61,1011.2,10,NNE (30),18.5,,Partly Cloudy
17/03/2016 20:00,23.9,17.2,57,1011.5,,NNE (30),16.7,,
17/03/2016 20:00,24,17,65,1011.2,10,NNE (30),16.7,,Partly Cloudy
17/03/2016 20:30,24,17,65,1011.2,10,NE (40),16.7,,Partly Cloudy
17/03/2016 21:00,24,17,65,1011.2,10,NE (40),16.7,,Partly Cloudy
17/03/2016 21:00,23.3,17.2,59,1011.2,25.7,NE (40),16.7,,Partly Cloudy
17/03/2016 21:30,23,17,69,1011.2,10,NNE (30),14.8,,Partly Cloudy
17/03/2016 22:00,23.9,17.2,58,1011.2,,NNE (30),14.8,,
17/03/2016 22:00,24,17,65,1011.2,10,NNE (30),14.8,,Partly Cloudy
17/03/2016 22:30,24,17,65,1011.2,10,North (10),16.7,,Partly Cloudy
17/03/2016 23:00,23.3,17.2,59,1010.8,,NNE (20),16.7,,
17/03/2016 23:00,23,17,69,1010.2,10,NNE (20),16.7,,Partly Cloudy
17/03/2016 23:30,23,17,69,1010.2,10,North (350),16.7,,Partly Cloudy
